QZS-6 (MICHIBIKI-6)     
1 62876U 25023A   26199.98016811 -.00000239  00000+0  00000+0 0  9995
2 62876   0.0115  35.8855 0001893  78.8766 265.3335  1.00274598  5261
ZHONGXING-10R           
1 63075U 25036A   26199.95975777 -.00000358  00000+0  00000+0 0  9995
2 63075   0.0255 168.8722 0004331 337.6824 246.2254  1.00270662  5276
TJS-15                  
1 63157U 25045A   26199.81210330 -.00000272  00000+0  00000+0 0  9993
2 63157   0.3094  85.6905 0003083 294.8019 302.8663  1.00272854  5079
TIANLIAN 2-04           
1 63361U 25062A   26199.96814480 -.00000140  00000+0  00000+0 0  9995
2 63361   4.2942 273.9815 0031436   9.2384  82.1007  1.00272598  4927
TJS-16                  
1 63397U 25064A   26199.72539708 -.00000112  00000+0  00000+0 0  9996
2 63397   1.1777  81.2665 0002454 294.7569 342.2525  1.00271244  4703
TJS-17                  
1 63524U 25073A   26199.82514919 -.00000077  00000+0  00000+0 0  9996
2 63524   1.1440  82.4266 0001008 314.2292   1.5118  1.00271316  4609
TIANLIAN 2-05           
1 63662U 25084A   26199.98253300  .00000120  00000+0  00000+0 0  9990
2 63662   4.3716 279.4727 0002700 157.1432 234.2368  1.00273006  4704
TJS-19                  
1 63924U 25097A   26199.82118086 -.00000281  00000+0  00000+0 0  9998
2 63924   3.2341 317.9697 0004110 251.3720 164.1101  1.00274857  4469
CHINASAT 3B             
1 64062U 25106A   26200.15447947 -.00000050  00000+0  00000+0 0  9997
2 64062   0.0330 186.5072 0004139 319.2493  14.1137  1.00272149  4381
SXM-10                  
1 64290U 25122A   26199.58864397 -.00000024  00000+0  00000+0 0  9995
2 64290   0.0175  44.1254 0001835 322.9805  25.0263  1.00272944  3990
COSMOS 2589             
1 64467U 25131A   26199.81911373 -.00000297  00000+0  00000+0 0  9996
2 64467   0.0238 120.2702 0001222  64.5231 144.7079  1.00268636  3876
CHINASAT 9C             
1 64470U 25132A   26199.89628019 -.00000254  00000+0  00000+0 0  9994
2 64470   0.0144  91.8755 0003439  23.8125 235.8527  1.00273439  4462
MTG-S1                  
1 64723U 25143A   26199.79072490 -.00000013  00000+0  00000+0 0  9995
2 64723   0.5824 345.9806 0003311 259.1431 335.7516  1.00274651  3730
DROR 1                  
1 64784U 25148A   26199.79072490 -.00000041  00000+0  00000+0 0  9998
2 64784   0.0400 238.7118 0002009 162.2390 176.3054  1.00272819  3615
SHIYAN-29               
1 65486U 25196A   26198.96433682 -.00000287  00000+0  00000+0 0  9995
2 65486  28.8546  18.1469 0013154 177.5801 182.5349  1.00275892  3184
NUSANTARA LIMA (NUSANT*)
1 65588U 25205A   26199.14419844  .00000000  00000+0  00000+0 0  9996
2 65588   0.0142  96.0397 0000415  69.3252 295.3574  1.00271133  3031
TJS-20                  
1 66142U 25238A   26199.95348558  .00000021  00000+0  00000+0 0  9994
2 66142   5.3988 299.4301 0003804 187.2691 215.7541  1.00267957  2656
CMS-03 (GSAT-7R)        
1 66311U 25249B   26199.84558538  .00000000  00000+0  00000+0 0  9990
2 66311   0.0147  57.1133 0002426  61.1071 196.8325  1.00269770  2661
VIASAT-3 F2             
1 66454U 25261A   26199.25030765 -.00000242  00000+0  00000+0 0  9993
2 66454   0.0351 206.6519 0000569   6.7692  93.7744  1.00272057  3107
SHIJIAN-28 (SJ-28)      
1 66549U 25277A   26199.71673039 -.00000365  00000+0  00000+0 0  9999
2 66549   4.4579 271.6305 0001231  54.4497 345.2658  1.00275211  2470
TJS-22                  
1 66990U 25290A   26193.80754925 -.00000005  00000+0  00000+0 0  9993
2 66990   1.4677 286.9097 0002691 318.9700  42.0235  1.00269739  2289
TJS-23                  
1 67226U 25306A   26199.51558626  .00000011  00000+0  00000+0 0  9994
2 67226   5.5184 297.3214 0004396 198.9022 161.2643  1.00268121  2207
FENGYUN 4C              
1 67246U 25312A   26194.65865777 -.00000328  00000+0  00000+0 0  9993
2 67246   0.0385 175.3203 0000658  48.7481  77.5697  1.00269440  2048
SHIJIAN-29A (SJ-29A)    
1 67302U 25315A   26199.98152971 -.00000075  00000+0  00000+0 0  9994
2 67302   3.4770  94.3451 0004979  50.8839 218.0715  1.00273026  1937
SHIJIAN-29B (SJ-29B)    
1 67403U 25315C   26199.98152961 -.00000076  00000+0  00000+0 0  9996
2 67403   3.4759  94.3382 0005172  54.1508 214.8629  1.00273297  2002
ELEKTRO-L 5             
1 67756U 26028A   26198.96700776 -.00000106  00000+0  00000+0 0  9993
2 67756   0.2040 326.3173 0002077 176.0737 217.6039  1.00271857  1551
JAM-E JAM 1             
1 67757U 26028B   26199.92842591  .00000150  00000+0  00000+0 0  9991
2 67757   0.1998 314.7945 0000724 261.9232  88.2489  1.00265999  1430
ECHOSTAR 25             
1 68126U 26045A   26199.58308632 -.00000064  00000+0  00000+0 0  9991
2 68126   0.0186  52.0699 0001758  56.8523 287.3607  1.00271629  1306
TJS-24                  
1 69235U 26116A   26199.98016789 -.00000238  00000+0  00000+0 0  9998
2 69235   0.0869  94.3343 0000332 151.7159 133.8728  1.00273820   547
